[{"OBJECT_NAME":"STARLINK-36894","OBJECT_ID":"2026-038M","EPOCH":"2026-03-14T14:00:01.999872","MEAN_MOTION":15.75248103,"ECCENTRICITY":0.00013079,"INCLINATION":97.2841,"RA_OF_ASC_NODE":84.1557,"ARG_OF_PERICENTER":88.009,"MEAN_ANOMALY":106.7651,"EPHEMERIS_TYPE":0,"CLASSIFICATION_TYPE":"U","NORAD_CAT_ID":67972,"ELEMENT_SET_NO":999,"REV_AT_EPOCH":398,"BSTAR":-0.00074344428,"MEAN_MOTION_DOT":-0.00109881,"MEAN_MOTION_DDOT":0},{"OBJECT_NAME":"STARLINK-36900","OBJECT_ID":"2026-038N","EPOCH":"2026-03-14T14:00:01.999872","MEAN_MOTION":15.74224062,"ECCENTRICITY":0.00018971,"INCLINATION":97.2833,"RA_OF_ASC_NODE":84.1601,"ARG_OF_PERICENTER":96.9028,"MEAN_ANOMALY":109.5168,"EPHEMERIS_TYPE":0,"CLASSIFICATION_TYPE":"U","NORAD_CAT_ID":67973,"ELEMENT_SET_NO":999,"REV_AT_EPOCH":398,"BSTAR":-0.019013685,"MEAN_MOTION_DOT":-0.02350532,"MEAN_MOTION_DDOT":0},{"OBJECT_NAME":"STARLINK-36901","OBJECT_ID":"2026-038P","EPOCH":"2026-03-14T14:00:01.999872","MEAN_MOTION":15.75244603,"ECCENTRICITY":0.00011798,"INCLINATION":97.2841,"RA_OF_ASC_NODE":84.1579,"ARG_OF_PERICENTER":95.9183,"MEAN_ANOMALY":104.849,"EPHEMERIS_TYPE":0,"CLASSIFICATION_TYPE":"U","NORAD_CAT_ID":67974,"ELEMENT_SET_NO":999,"REV_AT_EPOCH":398,"BSTAR":-0.00065488313,"MEAN_MOTION_DOT":-0.00096937,"MEAN_MOTION_DDOT":0},{"OBJECT_NAME":"STARLINK-36883","OBJECT_ID":"2026-038Q","EPOCH":"2026-03-14T14:00:01.999872","MEAN_MOTION":15.75243445,"ECCENTRICITY":0.00014435,"INCLINATION":97.2807,"RA_OF_ASC_NODE":84.171,"ARG_OF_PERICENTER":102.342,"MEAN_ANOMALY":134.4387,"EPHEMERIS_TYPE":0,"CLASSIFICATION_TYPE":"U","NORAD_CAT_ID":67975,"ELEMENT_SET_NO":999,"REV_AT_EPOCH":398,"BSTAR":-0.00035938175,"MEAN_MOTION_DOT":-0.00053523,"MEAN_MOTION_DDOT":0},{"OBJECT_NAME":"STARLINK-36880","OBJECT_ID":"2026-038R","EPOCH":"2026-03-14T14:00:01.999872","MEAN_MOTION":15.70525399,"ECCENTRICITY":0.00017878,"INCLINATION":97.2802,"RA_OF_ASC_NODE":84.1595,"ARG_OF_PERICENTER":96.3313,"MEAN_ANOMALY":110.5956,"EPHEMERIS_TYPE":0,"CLASSIFICATION_TYPE":"U","NORAD_CAT_ID":67976,"ELEMENT_SET_NO":999,"REV_AT_EPOCH":398,"BSTAR":-0.022012658,"MEAN_MOTION_DOT":-0.02326848,"MEAN_MOTION_DDOT":0},{"OBJECT_NAME":"STARLINK-36904","OBJECT_ID":"2026-038S","EPOCH":"2026-03-14T14:00:01.999872","MEAN_MOTION":15.75200116,"ECCENTRICITY":0.00010385,"INCLINATION":97.28,"RA_OF_ASC_NODE":84.1673,"ARG_OF_PERICENTER":104.8352,"MEAN_ANOMALY":123.9486,"EPHEMERIS_TYPE":0,"CLASSIFICATION_TYPE":"U","NORAD_CAT_ID":67977,"ELEMENT_SET_NO":999,"REV_AT_EPOCH":398,"BSTAR":-0.00027440447,"MEAN_MOTION_DOT":-0.0004088,"MEAN_MOTION_DDOT":0},{"OBJECT_NAME":"STARLINK-36364","OBJECT_ID":"2026-038T","EPOCH":"2026-03-14T14:00:01.999872","MEAN_MOTION":15.75229362,"ECCENTRICITY":0.00013052,"INCLINATION":97.2791,"RA_OF_ASC_NODE":84.1764,"ARG_OF_PERICENTER":95.6889,"MEAN_ANOMALY":157.0771,"EPHEMERIS_TYPE":0,"CLASSIFICATION_TYPE":"U","NORAD_CAT_ID":67978,"ELEMENT_SET_NO":999,"REV_AT_EPOCH":398,"BSTAR":-0.00072136808,"MEAN_MOTION_DOT":-0.00106576,"MEAN_MOTION_DDOT":0},{"OBJECT_NAME":"STARLINK-36359","OBJECT_ID":"2026-038U","EPOCH":"2026-03-14T14:00:01.999872","MEAN_MOTION":15.75248723,"ECCENTRICITY":0.00017471,"INCLINATION":97.2809,"RA_OF_ASC_NODE":84.1643,"ARG_OF_PERICENTER":97.4754,"MEAN_ANOMALY":123.2969,"EPHEMERIS_TYPE":0,"CLASSIFICATION_TYPE":"U","NORAD_CAT_ID":67979,"ELEMENT_SET_NO":999,"REV_AT_EPOCH":398,"BSTAR":-0.00076449903,"MEAN_MOTION_DOT":-0.00112959,"MEAN_MOTION_DDOT":0},{"OBJECT_NAME":"STARLINK-36882","OBJECT_ID":"2026-038V","EPOCH":"2026-03-14T14:00:01.999872","MEAN_MOTION":15.75254468,"ECCENTRICITY":0.00013543,"INCLINATION":97.2807,"RA_OF_ASC_NODE":84.1735,"ARG_OF_PERICENTER":107.3535,"MEAN_ANOMALY":137.4213,"EPHEMERIS_TYPE":0,"CLASSIFICATION_TYPE":"U","NORAD_CAT_ID":67980,"ELEMENT_SET_NO":999,"REV_AT_EPOCH":398,"BSTAR":-0.00092012828,"MEAN_MOTION_DOT":-0.00135597,"MEAN_MOTION_DDOT":0},{"OBJECT_NAME":"STARLINK-36874","OBJECT_ID":"2026-038W","EPOCH":"2026-03-14T14:00:01.999872","MEAN_MOTION":15.75240879,"ECCENTRICITY":0.0001547,"INCLINATION":97.2793,"RA_OF_ASC_NODE":84.1795,"ARG_OF_PERICENTER":103.6564,"MEAN_ANOMALY":155.0974,"EPHEMERIS_TYPE":0,"CLASSIFICATION_TYPE":"U","NORAD_CAT_ID":67981,"ELEMENT_SET_NO":999,"REV_AT_EPOCH":398,"BSTAR":-0.00056747295,"MEAN_MOTION_DOT":-0.00084131,"MEAN_MOTION_DDOT":0},{"OBJECT_NAME":"STARLINK-36879","OBJECT_ID":"2026-038X","EPOCH":"2026-03-14T14:00:01.999872","MEAN_MOTION":15.7251682,"ECCENTRICITY":0.00016449,"INCLINATION":97.2759,"RA_OF_ASC_NODE":84.1806,"ARG_OF_PERICENTER":93.2191,"MEAN_ANOMALY":170.954,"EPHEMERIS_TYPE":0,"CLASSIFICATION_TYPE":"U","NORAD_CAT_ID":67982,"ELEMENT_SET_NO":999,"REV_AT_EPOCH":398,"BSTAR":-0.020201261,"MEAN_MOTION_DOT":-0.02323952,"MEAN_MOTION_DDOT":0},{"OBJECT_NAME":"STARLINK-36867","OBJECT_ID":"2026-038Y","EPOCH":"2026-03-14T14:00:01.999872","MEAN_MOTION":15.75539249,"ECCENTRICITY":0.00022036,"INCLINATION":97.2755,"RA_OF_ASC_NODE":84.1876,"ARG_OF_PERICENTER":118.3114,"MEAN_ANOMALY":164.4835,"EPHEMERIS_TYPE":0,"CLASSIFICATION_TYPE":"U","NORAD_CAT_ID":67983,"ELEMENT_SET_NO":999,"REV_AT_EPOCH":398,"BSTAR":-0.016844432,"MEAN_MOTION_DOT":-0.02225233,"MEAN_MOTION_DDOT":0},{"OBJECT_NAME":"STARLINK-36266","OBJECT_ID":"2026-038Z","EPOCH":"2026-03-14T14:00:01.999872","MEAN_MOTION":15.75276459,"ECCENTRICITY":0.00011192,"INCLINATION":97.2789,"RA_OF_ASC_NODE":84.1856,"ARG_OF_PERICENTER":116.093,"MEAN_ANOMALY":158.6719,"EPHEMERIS_TYPE":0,"CLASSIFICATION_TYPE":"U","NORAD_CAT_ID":67984,"ELEMENT_SET_NO":999,"REV_AT_EPOCH":395,"BSTAR":-0.0012115892,"MEAN_MOTION_DOT":-0.00177799,"MEAN_MOTION_DDOT":0},{"OBJECT_NAME":"STARLINK-36802","OBJECT_ID":"2026-038AA","EPOCH":"2026-03-14T14:00:01.999872","MEAN_MOTION":15.75223,"ECCENTRICITY":9.621e-5,"INCLINATION":97.275,"RA_OF_ASC_NODE":84.1895,"ARG_OF_PERICENTER":94.7571,"MEAN_ANOMALY":194.0107,"EPHEMERIS_TYPE":0,"CLASSIFICATION_TYPE":"U","NORAD_CAT_ID":67985,"ELEMENT_SET_NO":999,"REV_AT_EPOCH":398,"BSTAR":0.0001266204,"MEAN_MOTION_DOT":0.00018825,"MEAN_MOTION_DDOT":0},{"OBJECT_NAME":"STARLINK-36535","OBJECT_ID":"2026-039A","EPOCH":"2026-03-14T06:58:19.114464","MEAN_MOTION":15.82193622,"ECCENTRICITY":0.00017538,"INCLINATION":42.9984,"RA_OF_ASC_NODE":26.7419,"ARG_OF_PERICENTER":301.5322,"MEAN_ANOMALY":58.5379,"EPHEMERIS_TYPE":0,"CLASSIFICATION_TYPE":"U","NORAD_CAT_ID":67986,"ELEMENT_SET_NO":999,"REV_AT_EPOCH":236,"BSTAR":0.0025136939,"MEAN_MOTION_DOT":0.00569834,"MEAN_MOTION_DDOT":0},{"OBJECT_NAME":"STARLINK-36744","OBJECT_ID":"2026-039B","EPOCH":"2026-03-13T21:51:45.851040","MEAN_MOTION":15.82394934,"ECCENTRICITY":0.00026348,"INCLINATION":42.9986,"RA_OF_ASC_NODE":29.057,"ARG_OF_PERICENTER":215.8267,"MEAN_ANOMALY":144.2428,"EPHEMERIS_TYPE":0,"CLASSIFICATION_TYPE":"U","NORAD_CAT_ID":67987,"ELEMENT_SET_NO":999,"REV_AT_EPOCH":230,"BSTAR":0.0034382731,"MEAN_MOTION_DOT":0.00809399,"MEAN_MOTION_DDOT":0}]
