STARLINK-36894          
1 67972U 26038M   26073.58335648 -.00109881  00000+0 -74344-3 0  9993
2 67972  97.2841  84.1557 0001307  88.0090 106.7651 15.75248103  3982
STARLINK-36900          
1 67973U 26038N   26073.58335648 -.02350532  00000+0 -19014-1 0  9998
2 67973  97.2833  84.1601 0001897  96.9028 109.5168 15.74224062  3988
STARLINK-36901          
1 67974U 26038P   26073.58335648 -.00096937  00000+0 -65488-3 0  9991
2 67974  97.2841  84.1579 0001179  95.9183 104.8490 15.75244603  3986
STARLINK-36883          
1 67975U 26038Q   26073.58335648 -.00053523  00000+0 -35938-3 0  9993
2 67975  97.2807  84.1710 0001443 102.3420 134.4387 15.75243445  3984
STARLINK-36880          
1 67976U 26038R   26073.58335648 -.02326848  00000+0 -22013-1 0  9997
2 67976  97.2802  84.1595 0001787  96.3313 110.5956 15.70525399  3988
STARLINK-36904          
1 67977U 26038S   26073.58335648 -.00040880  00000+0 -27440-3 0  9996
2 67977  97.2800  84.1673 0001038 104.8352 123.9486 15.75200116  3989
STARLINK-36364          
1 67978U 26038T   26073.58335648 -.00106576  00000+0 -72137-3 0  9995
2 67978  97.2791  84.1764 0001305  95.6889 157.0771 15.75229362  3988
STARLINK-36359          
1 67979U 26038U   26073.58335648 -.00112959  00000+0 -76450-3 0  9990
2 67979  97.2809  84.1643 0001747  97.4754 123.2969 15.75248723  3982
STARLINK-36882          
1 67980U 26038V   26073.58335648 -.00135597  00000+0 -92013-3 0  9998
2 67980  97.2807  84.1735 0001354 107.3535 137.4213 15.75254468  3988
STARLINK-36874          
1 67981U 26038W   26073.58335648 -.00084131  00000+0 -56747-3 0  9990
2 67981  97.2793  84.1795 0001547 103.6564 155.0974 15.75240879  3985
STARLINK-36879          
1 67982U 26038X   26073.58335648 -.02323952  00000+0 -20201-1 0  9994
2 67982  97.2759  84.1806 0001644  93.2191 170.9540 15.72516820  3983
STARLINK-36867          
1 67983U 26038Y   26073.58335648 -.02225233  00000+0 -16844-1 0  9996
2 67983  97.2755  84.1876 0002203 118.3114 164.4835 15.75539249  3981
STARLINK-36266          
1 67984U 26038Z   26073.58335648 -.00177799  00000+0 -12116-2 0  9997
2 67984  97.2789  84.1856 0001119 116.0930 158.6719 15.75276459  3957
STARLINK-36802          
1 67985U 26038AA  26073.58335648  .00018825  00000+0  12662-3 0  9997
2 67985  97.2750  84.1895 0000962  94.7571 194.0107 15.75223000  3989
STARLINK-36535          
1 67986U 26039A   26073.29049901  .00569834  00000+0  25137-2 0  9992
2 67986  42.9984  26.7419 0001753 301.5322  58.5379 15.82193622  2362
STARLINK-36744          
1 67987U 26039B   26072.91094735  .00809399  00000+0  34383-2 0  9992
2 67987  42.9986  29.0570 0002634 215.8267 144.2428 15.82394934  2304
